0 CZ-4B DEB
1 35389U 08064D   13281.86051611  .00012756  00000-0  89195-3 0  7285
2 35389 097.4690 235.3206 0173452 204.0885 213.6741 14.93969338252890
0 CZ-4B DEB
1 35389U 08064D   13282.34720666  .00022491  00000-0  15658-2 0  7292
2 35389 097.4687 235.7835 0173448 202.4382 311.2668 14.94002956252974
0 CZ-4B DEB
1 35389U 08064D   13283.35171686  .00019944  00000-0  13880-2 0  7302
2 35389 097.4683 236.7395 0173477 199.0650 313.9912 14.94034592253123
0 CZ-4B DEB
1 35389U 08064D   13284.13944626  .00018188  00000-0  12656-2 0  7311
2 35389 097.4682 237.4892 0173537 196.3963 230.8769 14.94052096253234
0 CZ-4B DEB
1 35389U 08064D   13285.36103642  .00015164  00000-0  10549-2 0  7323
2 35389 097.4678 238.6520 0173630 192.2568 321.4351 14.94087469253427
0 CZ-4B DEB
1 35389U 08064D   13286.36655853  .00014933  00000-0  10379-2 0  7335
2 35389 097.4675 239.6094 0173679 188.8440 329.9504 14.94115008253574
0 CZ-4B DEB
1 35389U 08064D   13288.08966554  .00030510  00000-0  21088-2 0  7348
2 35389 097.4691 241.2485 0173605 182.9931 238.4684 14.94175456253828
0 CZ-4B DEB
1 35389U 08064D   13288.70382096  .00024463  00000-0  16916-2 0  7355
2 35389 097.4695 241.8331 0173593 180.9208 302.0857 14.94203701253914
0 CZ-4B DEB
1 35389U 08064D   13292.10764212  .00019377  00000-0  13364-2 0  7361
2 35389 097.4715 245.0735 0173659 169.4731 252.5480 14.94332053254428
0 CZ-4B DEB
1 35389U 08064D   13293.11223529  .00018997  00000-0  13087-2 0  7374
2 35389 097.4708 246.0306 0173742 166.1080 256.9264 14.94365209254572
0 CZ-4B DEB
1 35389U 08064D   13294.85199522  .00024985  00000-0  17163-2 0  7385
2 35389 097.4708 247.6877 0173634 160.3597 256.4579 14.94424363254831
0 CZ-4B DEB
1 35389U 08064D   13295.85128998  .00023627  00000-0  16221-2 0  7392
2 35389 097.4707 248.6394 0173609 157.0502 232.6202 14.94457243254984
